0 BREEZE-M DEB
1 38921U 12044BE  13282.48859609  .00092456  26664-5  26336-2 0  3406
2 38921 050.2751 045.8070 2571944 039.3078 336.8748 10.27070272 35938
0 BREEZE-M DEB
1 38921U 12044BE  13282.68326126  .00086395  25904-5  24628-2 0  3415
2 38921 050.2753 045.3713 2571796 039.6645 336.6500 10.27098876 35953
0 BREEZE-M DEB
1 38921U 12044BE  13283.75381474  .00092635  26847-5  26396-2 0  3427
2 38921 050.2754 042.9719 2570943 041.6220 335.4091 10.27269448 36068
0 BREEZE-M DEB
1 38921U 12044BE  13284.53228345  .00087389  26259-5  24932-2 0  3433
2 38921 050.2753 041.2262 2570338 043.0447 334.4993 10.27384135 36147
0 BREEZE-M DEB
1 38921U 12044BE  13285.50524350  .00077982  25247-5  22282-2 0  3447
2 38921 050.2753 039.0443 2569599 044.8196 333.3548 10.27530150 36245
0 BREEZE-M DEB
1 38921U 12044BE  13286.47806711  .00072755  24788-5  20821-2 0  3458
2 38921 050.2756 036.8622 2568902 046.5963 332.1982 10.27662576 36348
0 BREEZE-M DEB
1 38921U 12044BE  13287.74254537  .00089372  26881-5  25480-2 0  3468
2 38921 050.2763 034.0263 2568093 048.9036 330.6792 10.27846774 36475
0 BREEZE-M DEB
1 38921U 12044BE  13288.42330789  .00099529  28351-5  28341-2 0  3477
2 38921 050.2767 032.4991 2567405 050.1479 329.8498 10.27989615 36544
0 BREEZE-M DEB
1 38921U 12044BE  13288.81227472  .00090856  27198-5  25876-2 0  3487
2 38921 050.2769 031.6262 2567102 050.8577 329.3745 10.28058835 36584
0 BREEZE-M DEB
1 38921U 12044BE  13289.39567820  .00090675  27236-5  25813-2 0  3499
2 38921 050.2772 030.3170 2566708 051.9244 328.6567 10.28144594 36645
0 BREEZE-M DEB
1 38921U 12044BE  13289.88180684  .00084880  26548-5  24161-2 0  3505
2 38921 050.2774 029.2259 2566407 052.8114 328.0564 10.28214738 36698
0 BREEZE-M DEB
1 38921U 12044BE  13291.14557286  .00082777  26421-5  23502-2 0  3515
2 38921 050.2774 026.3886 2565579 055.1195 326.4782 10.28417135 36821
0 BREEZE-M DEB
1 38921U 12044BE  13292.11753153  .00078619  26027-5  22285-2 0  3524
2 38921 050.2774 024.2063 2565024 056.8965 325.2475 10.28556324 36924
0 BREEZE-M DEB
1 38921U 12044BE  13293.47804537  .00082196  26568-5  23258-2 0  3534
2 38921 050.2776 021.1499 2564150 059.3905 323.4946 10.28749531 37069
0 BREEZE-M DEB
1 38921U 12044BE  13294.44967838  .00085226  27020-5  24063-2 0  3543
2 38921 050.2774 018.9663 2563588 061.1694 322.2264 10.28885429 37162
0 BREEZE-M DEB
1 38921U 12044BE  13295.42117712  .00086411  27249-5  24368-2 0  3559
2 38921 050.2773 016.7823 2562936 062.9471 320.9422 10.29030761 37267
0 BREEZE-M DEB
1 38921U 12044BE  13296.19827901  .00082900  26881-5  23378-2 0  3563
2 38921 050.2771 015.0350 2562400 064.3706 319.9018 10.29144949 37347
